[{"OBJECT_NAME":"LAPAN-A3","OBJECT_ID":"2016-040E","EPOCH":"2026-03-09T23:01:57.724896","MEAN_MOTION":15.3238951,"ECCENTRICITY":0.00109839,"INCLINATION":97.1488,"RA_OF_ASC_NODE":68.4254,"ARG_OF_PERICENTER":22.062,"MEAN_ANOMALY":338.1093,"EPHEMERIS_TYPE":0,"CLASSIFICATION_TYPE":"U","NORAD_CAT_ID":41603,"ELEMENT_SET_NO":999,"REV_AT_EPOCH":53961,"BSTAR":0.00017567445,"MEAN_MOTION_DOT":5.428e-5,"MEAN_MOTION_DDOT":0},{"OBJECT_NAME":"STARLINK-35573","OBJECT_ID":"2025-237C","EPOCH":"2026-03-09T07:16:17.175648","MEAN_MOTION":15.30196329,"ECCENTRICITY":0.00013646,"INCLINATION":53.1607,"RA_OF_ASC_NODE":41.2626,"ARG_OF_PERICENTER":85.8081,"MEAN_ANOMALY":274.3075,"EPHEMERIS_TYPE":0,"CLASSIFICATION_TYPE":"U","NORAD_CAT_ID":66116,"ELEMENT_SET_NO":999,"REV_AT_EPOCH":2255,"BSTAR":0.0009216063,"MEAN_MOTION_DOT":0.00027032,"MEAN_MOTION_DDOT":0}]
